{
  "type": "FeatureCollection",
  "features": [
    {
      "type": "Feature",
      "properties": {
        "norad_id": 45807,
        "name": "BEIDOU-3 G3 (C61)",
        "group": "gnss",
        "lat": -1.4875723886129781,
        "lon": 19.223002304323128,
        "alt_km": 35759.880407267134,
        "timestamp": "2025-12-25T11:37:44.679148+00:00",
        "meta_object_name": "BEIDOU-3 G3 (C61)",
        "meta_object_id": "2020-040A",
        "meta_epoch": "2025-12-24T22:11:03.869376",
        "meta_mean_motion": 1.00267778,
        "meta_eccentricity": 0.00065864,
        "meta_inclination": 2.0187,
        "meta_ra_of_asc_node": 66.6838,
        "meta_arg_of_pericenter": 308.9241,
        "meta_mean_anomaly": 161.3844,
        "meta_ephemeris_type": 0,
        "meta_classification_type": "U",
        "meta_norad_cat_id": 45807,
        "meta_element_set_no": 999,
        "meta_rev_at_epoch": 2032,
        "meta_bstar": 0,
        "meta_mean_motion_dot": -3.33e-06,
        "meta_mean_motion_ddot": 0,
        "tle_line1": "1 45807U 20040A   25358.92435034 -.00000333  00000+0  00000+0 0  9991",
        "tle_line2": "2 45807   2.0187  66.6838 0006586 308.9241 161.3844  1.00267778 20325"
      },
      "geometry": {
        "type": "Point",
        "coordinates": [
          19.223002304323128,
          -1.4875723886129781
        ]
      }
    },
    {
      "type": "Feature",
      "properties": {
        "norad_id": 45854,
        "name": "GPS BIII-3  (PRN 23)",
        "group": "gnss",
        "lat": -5.418632868817527,
        "lon": -140.70264966933073,
        "alt_km": 20029.59236292093,
        "timestamp": "2025-12-25T11:37:44.679159+00:00",
        "meta_object_name": "GPS BIII-3  (PRN 23)",
        "meta_object_id": "2020-041A",
        "meta_epoch": "2025-12-24T07:36:15.586848",
        "meta_mean_motion": 2.00561688,
        "meta_eccentricity": 0.00606528,
        "meta_inclination": 56.5546,
        "meta_ra_of_asc_node": 35.7353,
        "meta_arg_of_pericenter": 203.7393,
        "meta_mean_anomaly": 219.8521,
        "meta_ephemeris_type": 0,
        "meta_classification_type": "U",
        "meta_norad_cat_id": 45854,
        "meta_element_set_no": 999,
        "meta_rev_at_epoch": 4053,
        "meta_bstar": 0,
        "meta_mean_motion_dot": -4.9e-07,
        "meta_mean_motion_ddot": 0,
        "tle_line1": "1 45854U 20041A   25358.31684707 -.00000049  00000+0  00000+0 0  9994",
        "tle_line2": "2 45854  56.5546  35.7353 0060652 203.7393 219.8521  2.00561688 40537"
      },
      "geometry": {
        "type": "Point",
        "coordinates": [
          -140.70264966933073,
          -5.418632868817527
        ]
      }
    },
    {
      "type": "Feature",
      "properties": {
        "norad_id": 46114,
        "name": "GALAXY 30 (WAAS/PRN 135)",
        "group": "gnss",
        "lat": 0.015360580245605692,
        "lon": 143.65034255044682,
        "alt_km": 35792.02267204335,
        "timestamp": "2025-12-25T11:37:44.679171+00:00",
        "meta_object_name": "GALAXY 30 (WAAS/PRN 135)",
        "meta_object_id": "2020-056C",
        "meta_epoch": "2025-12-25T04:27:55.525248",
        "meta_mean_motion": 1.00271157,
        "meta_eccentricity": 0.0002156,
        "meta_inclination": 0.0175,
        "meta_ra_of_asc_node": 337.636,
        "meta_arg_of_pericenter": 295.3076,
        "meta_mean_anomaly": 122.9843,
        "meta_ephemeris_type": 0,
        "meta_classification_type": "U",
        "meta_norad_cat_id": 46114,
        "meta_element_set_no": 999,
        "meta_rev_at_epoch": 1954,
        "meta_bstar": 0,
        "meta_mean_motion_dot": 5.8e-07,
        "meta_mean_motion_ddot": 0,
        "tle_line1": "1 46114U 20056C   25359.18605932  .00000058  00000+0  00000+0 0  9998",
        "tle_line2": "2 46114   0.0175 337.6360 0002156 295.3076 122.9843  1.00271157 19547"
      },
      "geometry": {
        "type": "Point",
        "coordinates": [
          143.65034255044682,
          0.015360580245605692
        ]
      }
    },
    {
      "type": "Feature",
      "properties": {
        "norad_id": 46805,
        "name": "COSMOS 2547 (705K)",
        "group": "gnss",
        "lat": 45.13947352613334,
        "lon": -10.263152768788238,
        "alt_km": 19127.358334266235,
        "timestamp": "2025-12-25T11:37:44.679182+00:00",
        "meta_object_name": "COSMOS 2547 (705K)",
        "meta_object_id": "2020-075A",
        "meta_epoch": "2025-12-24T20:21:03.584160",
        "meta_mean_motion": 2.13100193,
        "meta_eccentricity": 0.0006111,
        "meta_inclination": 64.5968,
        "meta_ra_of_asc_node": 198.292,
        "meta_arg_of_pericenter": 227.5617,
        "meta_mean_anomaly": 132.4433,
        "meta_ephemeris_type": 0,
        "meta_classification_type": "U",
        "meta_norad_cat_id": 46805,
        "meta_element_set_no": 999,
        "meta_rev_at_epoch": 4019,
        "meta_bstar": 0,
        "meta_mean_motion_dot": 1.02e-06,
        "meta_mean_motion_ddot": 0,
        "tle_line1": "1 46805U 20075A   25358.84795815  .00000102  00000+0  00000+0 0  9998",
        "tle_line2": "2 46805  64.5968 198.2920 0006111 227.5617 132.4433  2.13100193 40197"
      },
      "geometry": {
        "type": "Point",
        "coordinates": [
          -10.263152768788238,
          45.13947352613334
        ]
      }
    },
    {
      "type": "Feature",
      "properties": {
        "norad_id": 46826,
        "name": "GPS BIII-4  (PRN 14)",
        "group": "gnss",
        "lat": 18.045088481486985,
        "lon": 24.142339853586726,
        "alt_km": 20059.952671826086,
        "timestamp": "2025-12-25T11:37:44.679196+00:00",
        "meta_object_name": "GPS BIII-4  (PRN 14)",
        "meta_object_id": "2020-078A",
        "meta_epoch": "2025-12-16T01:06:13.902336",
        "meta_mean_motion": 2.00566891,
        "meta_eccentricity": 0.0064754,
        "meta_inclination": 54.0144,
        "meta_ra_of_asc_node": 218.2068,
        "meta_arg_of_pericenter": 203.3802,
        "meta_mean_anomaly": 339.3962,
        "meta_ephemeris_type": 0,
        "meta_classification_type": "U",
        "meta_norad_cat_id": 46826,
        "meta_element_set_no": 999,
        "meta_rev_at_epoch": 3783,
        "meta_bstar": 0,
        "meta_mean_motion_dot": 6.7e-07,
        "meta_mean_motion_ddot": 0,
        "tle_line1": "1 46826U 20078A   25350.04599424  .00000067  00000+0  00000+0 0  9996",
        "tle_line2": "2 46826  54.0144 218.2068 0064754 203.3802 339.3962  2.00566891 37830"
      },
      "geometry": {
        "type": "Point",
        "coordinates": [
          24.142339853586726,
          18.045088481486985
        ]
      }
    },
    {
      "type": "Feature",
      "properties": {
        "norad_id": 48859,
        "name": "GPS BIII-5  (PRN 11)",
        "group": "gnss",
        "lat": -13.93774295621627,
        "lon": -30.486954053535772,
        "alt_km": 20206.42364414753,
        "timestamp": "2025-12-25T11:37:44.679210+00:00",
        "meta_object_name": "GPS BIII-5  (PRN 11)",
        "meta_object_id": "2021-054A",
        "meta_epoch": "2025-12-08T04:14:32.423424",
        "meta_mean_motion": 2.00553627,
        "meta_eccentricity": 0.0024678,
        "meta_inclination": 55.2581,
        "meta_ra_of_asc_node": 340.1367,
        "meta_arg_of_pericenter": 233.3993,
        "meta_mean_anomaly": 212.8594,
        "meta_ephemeris_type": 0,
        "meta_classification_type": "U",
        "meta_norad_cat_id": 48859,
        "meta_element_set_no": 999,
        "meta_rev_at_epoch": 3292,
        "meta_bstar": 0,
        "meta_mean_motion_dot": -8.6e-07,
        "meta_mean_motion_ddot": 0,
        "tle_line1": "1 48859U 21054A   25342.17676416 -.00000086  00000+0  00000+0 0  9993",
        "tle_line2": "2 48859  55.2581 340.1367 0024678 233.3993 212.8594  2.00553627 32922"
      },
      "geometry": {
        "type": "Point",
        "coordinates": [
          -30.486954053535772,
          -13.93774295621627
        ]
      }
    },
    {
      "type": "Feature",
      "properties": {
        "norad_id": 49336,
        "name": "QZS-1R (QZSS/PRN 196)",
        "group": "gnss",
        "lat": -18.981370168012027,
        "lon": 55.16751057102586,
        "alt_km": 33854.91679197683,
        "timestamp": "2025-12-25T11:37:44.679221+00:00",
        "meta_object_name": "QZS-1R (QZSS/PRN 196)",
        "meta_object_id": "2021-096A",
        "meta_epoch": "2025-12-24T14:02:51.747360",
        "meta_mean_motion": 1.00253394,
        "meta_eccentricity": 0.0757125,
        "meta_inclination": 37.101,
        "meta_ra_of_asc_node": 82.185,
        "meta_arg_of_pericenter": 271.5387,
        "meta_mean_anomaly": 84.3648,
        "meta_ephemeris_type": 0,
        "meta_classification_type": "U",
        "meta_norad_cat_id": 49336,
        "meta_element_set_no": 999,
        "meta_rev_at_epoch": 1526,
        "meta_bstar": 0,
        "meta_mean_motion_dot": -2.38e-06,
        "meta_mean_motion_ddot": 0,
        "tle_line1": "1 49336U 21096A   25358.58532115 -.00000238  00000+0  00000+0 0  9998",
        "tle_line2": "2 49336  37.1010  82.1850 0757125 271.5387  84.3648  1.00253394 15267"
      },
      "geometry": {
        "type": "Point",
        "coordinates": [
          55.16751057102586,
          -18.981370168012027
        ]
      }
    }
  ]
}